NORAD_CAT_ID,OBJECT_NAME,OBJECT_TYPE,EPOCH,MEAN_MOTION,ECCENTRICITY,INCLINATION,RA_OF_ASC_NODE,ARG_OF_PERICENTER,MEAN_ANOMALY,BSTAR,MEAN_MOTION_DOT,MEAN_MOTION_DDOT,TLE_LINE0,TLE_LINE1,TLE_LINE2,SEMIMAJOR_AXIS,PERIOD,APOGEE,PERIGEE,DECAYED
52563.0,STARLINK-3942,PAYLOAD,2024-02-17 08:08:35,15.08845383,0.0001346,53.2151,267.0634,89.7539,270.3607,7.5939e-05,9.21e-06,0.0,0 STARLINK-3942,1 52563U 22051AG  24048.33929420  .00000921  00000-0  75939-4 0  9990,2 52563  53.2151 267.0634 0001346  89.7539 270.3607 15.08845383 97942,6917.864,95.437,540.66,538.798,0.0
52563.0,STARLINK-3942,PAYLOAD,2024-02-17 20:51:40,15.08839682,0.0001299,53.2152,264.6833,97.8621,262.2518,0.00013228,1.818e-05,0.0,0 STARLINK-3942,1 52563U 22051AG  24048.86921779  .00001818  00000-0  13228-3 0  9995,2 52563  53.2152 264.6833 0001299  97.8621 262.2518 15.08839682 98099,6917.881,95.438,540.645,538.848,0.0
52563.0,STARLINK-3942,PAYLOAD,2024-02-18 00:02:26,15.08836006,0.000142,53.2155,264.0882,104.4891,255.6258,0.0002775,4.131e-05,0.0,0 STARLINK-3942,1 52563U 22051AG  24049.00169976  .00004131  00000-0  27750-3 0  9991,2 52563  53.2155 264.0882 0001420 104.4891 255.6258 15.08836006 98049,6917.893,95.438,540.74,538.775,0.0
52563.0,STARLINK-3942,PAYLOAD,2024-02-18 20:42:27,15.08837424,0.0001385,53.2159,260.2247,93.0306,267.0845,3.1099e-05,2.07e-06,0.0,0 STARLINK-3942,1 52563U 22051AG  24049.86282155  .00000207  00000-0  31099-4 0  9992,2 52563  53.2159 260.2247 0001385  93.0306 267.0845 15.08837424 98246,6917.888,95.438,540.711,538.795,0.0
52563.0,STARLINK-3942,PAYLOAD,2024-02-19 14:11:42,15.0883507,0.0001387,53.2161,256.952,98.8134,261.3015,5.0442e-05,5.15e-06,0.0,0 STARLINK-3942,1 52563U 22051AG  24050.59146383  .00000515  00000-0  50442-4 0  9991,2 52563  53.2161 256.9520 0001387  98.8134 261.3015 15.08835070 98284,6917.895,95.438,540.72,538.801,0.0
52563.0,STARLINK-3942,PAYLOAD,2024-02-19 20:33:14,15.08838983,0.0001399,53.2164,255.7671,93.6285,266.4867,3.6023e-05,2.85e-06,0.0,0 STARLINK-3942,1 52563U 22051AG  24050.85642251  .00000285  00000-0  36023-4 0  9998,2 52563  53.2164 255.7671 0001399  93.6285 266.4867 15.08838983 98326,6917.883,95.438,540.716,538.781,0.0
52563.0,STARLINK-3942,PAYLOAD,2024-02-19 23:44:00,15.08842133,0.000132,53.2165,255.1709,92.1081,268.0062,6.3599e-05,7.24e-06,0.0,0 STARLINK-3942,1 52563U 22051AG  24050.98889976  .00000724  00000-0  63599-4 0  9995,2 52563  53.2165 255.1709 0001320  92.1081 268.0062 15.08842133 98412,6917.874,95.437,540.652,538.826,0.0
52563.0,STARLINK-3942,PAYLOAD,2024-02-20 06:05:33,15.08840164,0.0001351,53.2166,253.983,92.7006,267.4141,2.6731e-05,1.38e-06,0.0,0 STARLINK-3942,1 52563U 22051AG  24051.25386277  .00000138  00000-0  26731-4 0  9998,2 52563  53.2166 253.9830 0001351  92.7006 267.4141 15.08840164 98380,6917.88,95.438,540.679,538.81,0.0
52563.0,STARLINK-3942,PAYLOAD,2024-02-20 20:24:01,15.08842437,0.0001452,53.2163,251.3059,95.0289,265.0868,0.00012422,1.69e-05,0.0,0 STARLINK-3942,1 52563U 22051AG  24051.85002026  .00001690  00000-0  12422-3 0  9996,2 52563  53.2163 251.3059 0001452  95.0289 265.0868 15.08842437 98478,6917.873,95.437,540.742,538.733,0.0
52563.0,STARLINK-3942,PAYLOAD,2024-02-21 05:56:20,15.08842014,0.0001429,53.2162,249.5215,93.4546,266.6609,0.00012878,1.762e-05,0.0,0 STARLINK-3942,1 52563U 22051AG  24052.24746038  .00001762  00000-0  12878-3 0  9993,2 52563  53.2162 249.5215 0001429  93.4546 266.6609 15.08842014 98608,6917.874,95.437,540.728,538.751,0.0
52563.0,STARLINK-3942,PAYLOAD,2024-02-21 13:53:16,15.08839526,0.000147,53.2167,248.0345,91.7821,268.334,7.3584e-05,8.83e-06,0.0,0 STARLINK-3942,1 52563U 22051AG  24052.57866322  .00000883  00000-0  73584-4 0  9993,2 52563  53.2167 248.0345 0001470  91.7821 268.3340 15.08839526 98586,6917.882,95.438,540.764,538.73,0.0
52563.0,STARLINK-3942,PAYLOAD,2024-02-21 20:14:48,15.08841336,0.0001464,53.2168,246.845,91.1099,269.0061,7.9601e-05,9.79e-06,0.0,0 STARLINK-3942,1 52563U 22051AG  24052.84362170  .00000979  00000-0  79601-4 0  9997,2 52563  53.2168 246.8450 0001464  91.1099 269.0061 15.08841336 98629,6917.876,95.437,540.754,538.729,0.0
52563.0,STARLINK-3942,PAYLOAD,2024-02-22 05:47:07,15.08840674,0.0001459,53.2169,245.0607,89.6161,270.4998,6.6247e-05,7.67e-06,0.0,0 STARLINK-3942,1 52563U 22051AG  24053.24106221  .00000767  00000-0  66247-4 0  9992,2 52563  53.2169 245.0607 0001459  89.6161 270.4998 15.08840674 98754,6917.878,95.438,540.753,538.734,0.0
52563.0,STARLINK-3942,PAYLOAD,2024-02-22 20:05:35,15.08841622,0.0001407,53.2171,242.3839,89.4079,270.7074,5.7256e-06,-1.97e-06,0.0,0 STARLINK-3942,1 52563U 22051AG  24053.83722215 -.00000197  00000-0  57256-5 0  9993,2 52563  53.2171 242.3839 0001407  89.4079 270.7074 15.08841622 98777,6917.875,95.437,540.714,538.767,0.0
52563.0,STARLINK-3942,PAYLOAD,2024-02-23 11:59:28,15.08830486,0.0001267,53.2175,239.4095,87.1082,273.0055,-5.9465e-06,-3.82e-06,0.0,0 STARLINK-3942,1 52563U 22051AG  24054.49963072 -.00000382  00000-0 -59465-5 0  9995,2 52563  53.2175 239.4095 0001267  87.1082 273.0055 15.08830486 98945,6917.909,95.438,540.651,538.898,0.0
52563.0,STARLINK-3942,PAYLOAD,2024-02-23 19:56:23,15.08840961,0.0001329,53.2162,237.923,85.6835,274.4309,4.1816e-05,3.78e-06,0.0,0 STARLINK-3942,1 52563U 22051AG  24054.83082359  .00000378  00000-0  41816-4 0  9996,2 52563  53.2162 237.9230 0001329  85.6835 274.4309 15.08840961 98994,6917.877,95.437,540.662,538.823,0.0
52563.0,STARLINK-3942,PAYLOAD,2024-02-24 05:28:41,15.08843861,0.0001336,53.2162,236.1388,85.4281,274.6863,7.7399e-05,9.44e-06,0.0,0 STARLINK-3942,1 52563U 22051AG  24055.22826082  .00000944  00000-0  77399-4 0  9993,2 52563  53.2162 236.1388 0001336  85.4281 274.6863 15.08843861 98988,6917.869,95.437,540.658,538.809,0.0
52563.0,STARLINK-3942,PAYLOAD,2024-02-24 18:11:46,15.08848656,0.0001318,53.2159,233.7595,85.4042,274.7101,0.00011343,1.518e-05,0.0,0 STARLINK-3942,1 52563U 22051AG  24055.75817549  .00001518  00000-0  11343-3 0  9993,2 52563  53.2159 233.7595 0001318  85.4042 274.7101 15.08848656 99133,6917.854,95.437,540.631,538.807,0.0
52563.0,STARLINK-3942,PAYLOAD,2024-02-25 05:19:28,15.0884248,0.000133,53.2159,231.6786,82.7852,277.3291,0.00016314,2.31e-05,0.0,0 STARLINK-3942,1 52563U 22051AG  24056.22185748  .00002310  00000-0  16314-3 0  9999,2 52563  53.2159 231.6786 0001330  82.7852 277.3291 15.08842480 99201,6917.873,95.437,540.658,538.818,0.0
52563.0,STARLINK-3942,PAYLOAD,2024-02-25 14:51:47,15.08839346,0.0001398,53.216,229.8948,82.5993,277.5158,6.8117e-05,7.96e-06,0.0,0 STARLINK-3942,1 52563U 22051AG  24056.61930224  .00000796  00000-0  68117-4 0  9994,2 52563  53.2160 229.8948 0001398  82.5993 277.5158 15.08839346 99199,6917.882,95.438,540.715,538.78,0.0
52563.0,STARLINK-3942,PAYLOAD,2024-02-25 21:13:19,15.08849948,0.0001609,53.2176,228.701,113.0714,247.0448,4.1284e-05,3.69e-06,0.0,0 STARLINK-3942,1 52563U 22051AG  24056.88425418  .00000369  00000-0  41284-4 0  9999,2 52563  53.2176 228.7010 0001609 113.0714 247.0448 15.08849948 99238,6917.85,95.437,540.828,538.602,0.0
52563.0,STARLINK-3942,PAYLOAD,2024-02-26 11:31:47,15.08845655,0.0001285,53.2166,226.0237,92.3092,267.8047,1.6064e-05,-3.2e-07,0.0,0 STARLINK-3942,1 52563U 22051AG  24057.48041603 -.00000032  00000-0  16064-4 0  9992,2 52563  53.2166 226.0237 0001285  92.3092 267.8047 15.08845655 99390,6917.863,95.437,540.617,538.839,0.0
52563.0,STARLINK-3942,PAYLOAD,2024-02-26 14:42:33,15.08848834,0.0001401,53.2158,225.4291,94.0978,266.0174,1.3336e-05,-7.6e-07,0.0,0 STARLINK-3942,1 52563U 22051AG  24057.61289347 -.00000076  00000-0  13336-4 0  9993,2 52563  53.2158 225.4291 0001401  94.0978 266.0174 15.08848834 99345,6917.853,95.437,540.688,538.749,0.0
52563.0,STARLINK-3942,PAYLOAD,2024-02-26 21:04:06,15.08847726,0.0001491,53.2175,224.2418,95.5265,264.5898,5.7088e-05,6.21e-06,0.0,0 STARLINK-3942,1 52563U 22051AG  24057.87785166  .00000621  00000-0  57088-4 0  9998,2 52563  53.2175 224.2418 0001491  95.5265 264.5898 15.08847726 99385,6917.857,95.437,540.753,538.69,0.0
52563.0,STARLINK-3942,PAYLOAD,2024-02-27 11:22:35,15.0883316,0.0001565,53.2169,221.5607,105.5969,254.5196,-5.9714e-05,-1.238e-05,0.0,0 STARLINK-3942,1 52563U 22051AG  24058.47402557 -.00001238  00000-0 -59714-4 0  9990,2 52563  53.2169 221.5607 0001565 105.5969 254.5196 15.08833160 99548,6917.901,95.438,540.849,538.684,0.0
52563.0,STARLINK-3942,PAYLOAD,2024-02-27 14:33:22,15.08830176,0.0001545,53.2168,220.9671,105.3903,254.726,-5.5384e-05,-1.169e-05,0.0,0 STARLINK-3942,1 52563U 22051AG  24058.60650783 -.00001169  00000-0 -55384-4 0  9993,2 52563  53.2168 220.9671 0001545 105.3903 254.7260 15.08830176 99497,6917.91,95.438,540.844,538.707,0.0
52563.0,STARLINK-3942,PAYLOAD,2024-02-27 16:08:45,15.08831929,0.0001613,53.217,220.6682,112.5768,247.5395,-7.1952e-05,-1.433e-05,0.0,0 STARLINK-3942,1 52563U 22051AG  24058.67274707 -.00001433  00000-0 -71952-4 0  9991,2 52563  53.2170 220.6682 0001613 112.5768 247.5395 15.08831929 99502,6917.905,95.438,540.886,538.654,0.0
52563.0,STARLINK-3942,PAYLOAD,2024-02-28 14:24:09,15.08837402,0.0001301,53.2163,216.5107,82.9818,277.1322,1.2032e-05,-9.6e-07,0.0,0 STARLINK-3942,1 52563U 22051AG  24059.60010667 -.00000096  00000-0  12032-4 0  9995,2 52563  53.2163 216.5107 0001301  82.9818 277.1322 15.08837402 99646,6917.888,95.438,540.653,538.853,0.0
52563.0,STARLINK-3942,PAYLOAD,2024-02-28 17:34:55,15.08841072,0.0001295,53.2161,215.9184,85.333,274.781,6.1573e-05,6.92e-06,0.0,0 STARLINK-3942,1 52563U 22051AG  24059.73258336  .00000692  00000-0  61573-4 0  9991,2 52563  53.2161 215.9184 0001295  85.3330 274.7810 15.08841072 99733,6917.877,95.437,540.638,538.846,0.0
52563.0,STARLINK-3942,PAYLOAD,2024-02-29 09:28:47,15.08831695,0.0001324,53.2155,212.9448,84.8474,275.2669,0.00015999,2.259e-05,0.0,0 STARLINK-3942,1 52563U 22051AG  24060.39498949  .00002259  00000-0  15999-3 0  9992,2 52563  53.2155 212.9448 0001324  84.8474 275.2669 15.08831695 99831,6917.906,95.438,540.687,538.855,0.0
